H1 CPF 01  gfz 2021 11 21 01  8251 tandemx   
H2 1003001  6202 36605    2021 11 21 00 59 42 2021 11 26 00 00 42   120 1 1  0 0 0
H9
10 0 59542  59022.000000  0   -6026721.307  -2405758.519  -2322316.943
10 0 59542  59142.000000  0   -5757709.709  -2105848.159  -3150666.796
10 0 59542  59262.000000  0   -5382857.510  -1774878.944  -3923730.426
10 0 59542  59382.000000  0   -4908318.686  -1420449.051  -4628014.835
10 0 59542  59502.000000  0   -4342104.567  -1050429.438  -5251262.234
10 0 59542  59622.000000  0   -3693937.118   -672792.703  -5782657.075
10 0 59542  59742.000000  0   -2975072.282   -295445.074  -6213003.666
10 0 59542  59862.000000  0   -2198098.280     73935.038  -6534873.544
10 0 59542  59982.000000  0   -1376712.217    428048.329  -6742722.177
10 0 59542  60102.000000  0    -525479.748    760113.489  -6832973.854
10 0 59542  60222.000000  0     340418.151   1063993.461  -6804075.844
10 0 59542  60342.000000  0    1205448.148   1334304.893  -6656522.583
10 0 59542  60462.000000  0    2053997.282   1566511.529  -6392850.654
10 0 59542  60582.000000  0    2870649.445   1756999.945  -6017599.698
10 0 59542  60702.000000  0    3640461.649   1903135.301  -5537241.462
10 0 59542  60822.000000  0    4349234.877   2003296.953  -4960078.830
10 0 59542  60942.000000  0    4983778.644   2056894.153  -4296114.439
10 0 59542  61062.000000  0    5532162.356   2064360.272  -3556887.182
10 0 59542  61182.000000  0    5983947.471   2027125.370  -2755280.337
10 0 59542  61302.000000  0    6330397.401   1947567.948  -1905303.333
10 0 59542  61422.000000  0    6564658.097   1828946.456  -1021847.709
10 0 59542  61542.000000  0    6681903.921   1675311.016   -120423.900
10 0 59542  61662.000000  0    6679444.352   1491397.450    783117.739
10 0 59542  61782.000000  0    6556787.403   1282507.153   1672871.994
10 0 59542  61902.000000  0    6315662.261   1054375.011   2533167.734
10 0 59542  62022.000000  0    5959994.164    813027.968   3348853.306
10 0 59542  62142.000000  0    5495835.966    564639.455   4105570.566
10 0 59542  62262.000000  0    4931255.809    315382.494   4790011.758
10 0 59542  62382.000000  0    4276188.420     71286.564   5390154.541
10 0 59542  62502.000000  0    3542249.738   -161900.833   5895472.859
10 0 59542  62622.000000  0    2742520.949   -378842.026   6297116.264
10 0 59542  62742.000000  0    1891309.199   -574724.882   6588058.983
10 0 59542  62862.000000  0    1003887.612   -745364.961   6763217.782
10 0 59542  62982.000000  0      96217.711   -887292.099   6819535.878
10 0 59542  63102.000000  0    -815338.349   -997819.208   6756031.628
10 0 59542  63222.000000  0   -1714311.722  -1075093.055   6573813.771
10 0 59542  63342.000000  0   -2584422.820  -1118125.171   6276062.520
10 0 59542  63462.000000  0   -3409874.528  -1126802.770   5867978.350
10 0 59542  63582.000000  0   -4175641.572  -1101880.280   5356698.588
10 0 59542  63702.000000  0   -4867749.631  -1044952.150   4751178.895
10 0 59542  63822.000000  0   -5473537.870   -958405.850   4062041.168
10 0 59542  63942.000000  0   -5981898.845   -845356.339   3301390.049
10 0 59542  64062.000000  0   -6383490.676   -709563.328   2482602.284
10 0 59542  64182.000000  0   -6670919.610   -555333.151   1620091.565
10 0 59542  64302.000000  0   -6838885.942   -387407.417    729049.496
10 0 59542  64422.000000  0   -6884287.282   -210841.603   -174829.718
10 0 59542  64542.000000  0   -6806278.050    -30875.992  -1075634.514
10 0 59542  64662.000000  0   -6606282.587    147197.538  -1957525.247
10 0 59542  64782.000000  0   -6287963.433    318168.683  -2805019.018
10 0 59542  64902.000000  0   -5857146.698    477039.270  -3603268.261
10 0 59542  65022.000000  0   -5321702.241    619148.141  -4338324.111
10 0 59542  65142.000000  0   -4691386.707    740286.492  -4997378.333
10 0 59542  65262.000000  0   -3977652.673    836801.193  -5568980.784
10 0 59542  65382.000000  0   -3193430.181    905683.962  -6043229.319
10 0 59542  65502.000000  0   -2352885.044    944644.123  -6411929.895
10 0 59542  65622.000000  0   -1471160.478    952165.013  -6668726.528
10 0 59542  65742.000000  0    -564104.379    927543.203  -6809199.953
10 0 59542  65862.000000  0     352010.498    870909.019  -6830933.891
10 0 59542  65982.000000  0    1260770.024    783228.840  -6733553.080
10 0 59542  66102.000000  0    2145906.820    666288.846  -6518731.260
10 0 59542  66222.000000  0    2991585.571    522660.641  -6190165.106
10 0 59542  66342.000000  0    3782682.189    355649.461  -5753516.938
10 0 59542  66462.000000  0    4505051.755    169224.293  -5216326.416
10 0 59542  66582.000000  0    5145783.296    -32067.433  -4587892.473
10 0 59542  66702.000000  0    5693437.500   -243200.203  -3879123.322
10 0 59542  66822.000000  0    6138259.783   -458784.034  -3102356.164
10 0 59542  66942.000000  0    6472365.668   -673189.243  -2271149.924
10 0 59542  67062.000000  0    6689893.923   -880679.672  -1400051.704
10 0 59542  67182.000000  0    6787121.458  -1075550.613   -504341.191
10 0 59542  67302.000000  0    6762537.151  -1252268.665    400241.190
10 0 59542  67422.000000  0    6616872.401  -1405609.876   1297778.012
10 0 59542  67542.000000  0    6353086.015  -1530792.974   2172463.336
10 0 59542  67662.000000  0    5976304.477  -1623603.388   3008890.914
10 0 59542  67782.000000  0    5493717.246  -1680504.414   3792333.452
10 0 59542  67902.000000  0    4914431.963  -1698734.475   4509007.179
10 0 59542  68022.000000  0    4249293.308  -1676386.344   5146316.508
10 0 59542  68142.000000  0    3510671.269  -1612466.720   5693075.325
10 0 59542  68262.000000  0    2712221.707  -1506936.162   6139701.079
10 0 59542  68382.000000  0    1868626.579  -1360728.081   6478376.853
10 0 59542  68502.000000  0     995319.322  -1175746.997   6703182.768
10 0 59542  68622.000000  0     108199.024   -954844.968   6810193.788
10 0 59542  68742.000000  0    -776659.796   -701777.175   6797542.792
10 0 59542  68862.000000  0   -1643297.154   -421138.116   6665450.314
10 0 59542  68982.000000  0   -2476153.991   -118278.472   6416220.871
10 0 59542  69102.000000  0   -3260350.624    200795.963   6054206.095
10 0 59542  69222.000000  0   -3981954.222    529541.563   5585734.435
10 0 59542  69342.000000  0   -4628230.869    861008.402   5019006.541
10 0 59542  69462.000000  0   -5187876.842   1187984.179   4363957.709
10 0 59542  69582.000000  0   -5651224.819   1503147.921   3632087.796
10 0 59542  69702.000000  0   -6010419.302   1799229.810   2836261.726
10 0 59542  69822.000000  0   -6259558.754   2069173.823   1990483.724
10 0 59542  69942.000000  0   -6394801.025   2306299.381   1109648.301
10 0 59542  70062.000000  0   -6414428.006   2504458.394    209271.334
10 0 59542  70182.000000  0   -6318866.587   2658182.421   -694791.637
10 0 59542  70302.000000  0   -6110666.482   2762816.539  -1586633.623
10 0 59542  70422.000000  0   -5794435.495   2814637.166  -2450584.569
10 0 59542  70542.000000  0   -5376732.900   2810950.469  -3271494.642
10 0 59542  70662.000000  0   -4865924.572   2750167.920  -4035003.783
10 0 59542  70782.000000  0   -4272005.390   2631858.732  -4727792.888
10 0 59542  70902.000000  0   -3606393.244   2456777.802  -5337811.787
10 0 59542  71022.000000  0   -2881701.216   2226869.749  -5854480.050
10 0 59542  71142.000000  0   -2111493.995   1945249.523  -6268860.720
10 0 59542  71262.000000  0   -1310030.329   1616159.171  -6573804.178
10 0 59542  71382.000000  0    -491999.946   1244902.514  -6764059.032
10 0 59542  71502.000000  0     327741.267    837759.344  -6836352.658
10 0 59542  71622.000000  0    1134433.665    401881.177  -6789441.805
10 0 59542  71742.000000  0    1913674.470    -54831.824  -6624133.281
10 0 59542  71862.000000  0    2651669.029   -523870.592  -6343270.412
10 0 59542  71982.000000  0    3335470.770   -996271.152  -5951690.052
10 0 59542  72102.000000  0    3953206.152  -1462780.928  -5456146.956
10 0 59542  72222.000000  0    4494282.163  -1914035.682  -4865209.333
10 0 59542  72342.000000  0    4949573.317  -2340745.350  -4189121.913
10 0 59542  72462.000000  0    5311582.771  -2733883.469  -3439638.656
10 0 59542  72582.000000  0    5574575.507  -3084876.895  -2629826.779
10 0 59542  72702.000000  0    5734679.383  -3385791.602  -1773843.196
10 0 59542  72822.000000  0    5789950.329  -3629509.883   -886688.146
10 0 59542  72942.000000  0    5740400.598  -3809895.253     16060.170
10 0 59542  73062.000000  0    5587987.657  -3921939.666    918524.843
10 0 59542  73182.000000  0    5336564.023  -3961890.493   1804817.774
10 0 59542  73302.000000  0    4991787.426  -3927350.997   2659329.563
10 0 59542  73422.000000  0    4560994.450  -3817352.481   3467012.030
10 0 59542  73542.000000  0    4053042.807  -3632397.492   4213649.262
10 0 59542  73662.000000  0    3478125.218  -3374473.563   4886112.440
10 0 59542  73782.000000  0    2847557.685  -3047035.510   5472592.052
10 0 59542  73902.000000  0    2173551.228  -2654957.612   5962803.141
10 0 59542  74022.000000  0    1468969.944  -2204457.803   6348161.478
10 0 59542  74142.000000  0     747081.753  -1702995.906   6621927.738
10 0 59542  74262.000000  0      21306.593  -1159147.276   6779319.348
10 0 59542  74382.000000  0    -695033.206   -582454.225   6817588.642
10 0 59542  74502.000000  0   -1388956.393     16741.923   6736067.167
10 0 59542  74622.000000  0   -2048057.056    627485.868   6536176.700
10 0 59542  74742.000000  0   -2660725.843   1238407.902   6221406.145
10 0 59542  74862.000000  0   -3216355.098   1837934.562   5797254.627
10 0 59542  74982.000000  0   -3705525.034   2414507.547   5271141.871
10 0 59542  75102.000000  0   -4120168.161   2956808.043   4652284.795
10 0 59542  75222.000000  0   -4453707.893   3453981.215   3951541.148
10 0 59542  75342.000000  0   -4701169.164   3895856.182   3181222.496
10 0 59542  75462.000000  0   -4859257.156   4273157.357   2354878.924
99
